[Satellite]
VERSION=1.1
NAME=CZ-6A DEB
NICKNAME=CZ-6A DEB
TLE1=1 54329U 22151BY  22342.25060306  .00003328  00000+0  74578-3 0  9998
TLE2=2 54329  98.7352 347.9460 0169711 142.5142 218.8029 14.48795000  3221
STATUS=0
